{
  "saved_breweries": [
    {
      "name": "10 Barrel Brewing Co",
      "phoneNumber": "5415851007",
      "street": "62970 18th St",
      "city": "Bend",
      "state": "Oregon",
      "zip": "97701-9847",
      "website": "http://www.10barrel.com",
      "id": 1
    },
    {
      "name": "10-56 Brewing Company",
      "phoneNumber": "6308165790",
      "street": "400 Brown Cir",
      "city": "Knox",
      "state": "Indiana",
      "zip": "46534",
      "website": "",
      "id": 2
    },
    {
      "name": "10 Barrel Brewing Co - Bend Pub",
      "phoneNumber": "5415851007",
      "street": "62950 NE 18th St",
      "city": "Bend",
      "state": "Oregon",
      "zip": "97701",
      "website": "",
      "id": 3
    },
    {
      "name": "Austin Beerworks",
      "phoneNumber": "5128212494",
      "street": "3001 Industrial Ter",
      "city": "Austin",
      "state": "Texas",
      "zip": "78758-7609",
      "website": "http://www.austinbeerworks.com",
      "id": 4
    },
    {
      "name": "10-56 Brewing Company",
      "phoneNumber": "6308165790",
      "street": "400 Brown Cir",
      "city": "Knox",
      "state": "Indiana",
      "zip": "46534",
      "website": "",
      "id": 5
    },
    {
      "name": "The Austin Beer Garden Brewing Co",
      "phoneNumber": "null",
      "street": "1305 W Oltorf St Ste B",
      "city": "Austin",
      "state": "Texas",
      "zip": "78704-5362",
      "website": "",
      "id": 6
    },
    {
      "name": "Austin Street Brewery",
      "phoneNumber": "2072001994",
      "street": "1 Industrial Way Ste 8",
      "city": "Portland",
      "state": "Maine",
      "zip": "04103-1072",
      "website": "http://www.austinstreetbrewery.com",
      "id": 7
    },
    {
      "name": "Austin Street Brewery",
      "phoneNumber": "2072001994",
      "street": "1 Industrial Way Ste 8",
      "city": "Portland",
      "state": "Maine",
      "zip": "04103-1072",
      "website": "http://www.austinstreetbrewery.com",
      "id": 8
    }
  ]
}